{"type":"FeatureCollection","attribution":"District boundaries: DataMeet India community (Census 2011), CC BY 2.5 India","features":[{"type":"Feature","properties":{"id":"Bengaluru_Urban","name":"Bengaluru Urban","datameet_name":"Bangalore","census_2011_code":572.0},"geometry":{"type":"Polygon","coordinates":[[[77.8355,12.8681],[77.832,12.859],[77.8269,12.8581],[77.8235,12.8531],[77.8148,12.8518],[77.8097,12.8469],[77.8018,12.8489],[77.7947,12.8429],[77.7934,12.8373],[77.7979,12.8327],[77.8109,12.8299],[77.8086,12.8209],[77.8106,12.8147],[77.8043,12.8149],[77.8013,12.8054],[77.8094,12.796],[77.8078,12.792],[77.7979,12.7904],[77.7816,12.7689],[77.7838,12.7602],[77.7949,12.7542],[77.7929,12.7479],[77.7881,12.7428],[77.7683,12.7384],[77.763,12.7342],[77.7616,12.7275],[77.773,12.7236],[77.7603,12.6963],[77.7435,12.7006],[77.7372,12.6919],[77.7432,12.681],[77.7414,12.6731],[77.7253,12.6721],[77.7241,12.6793],[77.7137,12.6828],[77.7117,12.6673],[77.7054,12.6603],[77.6883,12.658],[77.6777,12.6596],[77.6791,12.6709],[77.6757,12.6733],[77.6801,12.6802],[77.6641,12.6831],[77.6,12.6663],[77.5989,12.6571],[77.5951,12.6643],[77.6057,12.6889],[77.6183,12.7056],[77.5973,12.7187],[77.5705,12.6987],[77.5643,12.7049],[77.5595,12.7215],[77.5594,12.7302],[77.5731,12.7315],[77.5704,12.736],[77.5778,12.7516],[77.583,12.7528],[77.589,12.7492],[77.5982,12.756],[77.6001,12.7662],[77.5946,12.7821],[77.583,12.7865],[77.5737,12.7795],[77.5745,12.7687],[77.5688,12.7587],[77.5638,12.7635],[77.5576,12.7799],[77.5641,12.7856],[77.5552,12.7883],[77.5592,12.7996],[77.5421,12.7985],[77.5513,12.7861],[77.5446,12.7756],[77.5526,12.7733],[77.5446,12.7633],[77.5454,12.753],[77.5393,12.7545],[77.5217,12.7319],[77.521,12.7437],[77.5162,12.7445],[77.5067,12.7354],[77.4904,12.7428],[77.4777,12.7539],[77.475,12.766],[77.4789,12.7788],[77.472,12.7928],[77.4857,12.799],[77.4803,12.8054],[77.4821,12.8077],[77.4666,12.8088],[77.4537,12.818],[77.4452,12.8072],[77.4339,12.8163],[77.4379,12.8229],[77.4235,12.8258],[77.4225,12.8303],[77.4264,12.8348],[77.4385,12.8394],[77.439,12.8497],[77.4296,12.8547],[77.4218,12.8683],[77.4315,12.8709],[77.4309,12.8769],[77.4198,12.8704],[77.413,12.8757],[77.4088,12.874],[77.403,12.8637],[77.3974,12.8691],[77.3946,12.8617],[77.3783,12.8534],[77.369,12.8634],[77.3669,12.8708],[77.3489,12.8675],[77.3483,12.8804],[77.3378,12.9088],[77.3422,12.9136],[77.3426,12.9281],[77.3389,12.9283],[77.3388,12.9338],[77.3449,12.937],[77.3457,12.9412],[77.3391,12.9416],[77.3334,12.9469],[77.3306,12.9739],[77.3403,12.976],[77.3422,12.9702],[77.3455,12.97],[77.3556,12.9737],[77.3615,12.9835],[77.3802,12.9939],[77.3735,13.0155],[77.3798,13.0187],[77.3788,13.0291],[77.3939,13.0283],[77.3987,13.0539],[77.3927,13.0548],[77.3897,13.0494],[77.3874,13.0512],[77.3841,13.0576],[77.385,13.0646],[77.4024,13.0705],[77.4303,13.0678],[77.4267,13.086],[77.4215,13.086],[77.4197,13.1045],[77.4049,13.1129],[77.406,13.1242],[77.41,13.1241],[77.4175,13.1472],[77.4298,13.1635],[77.4454,13.1639],[77.4618,13.1597],[77.4684,13.1624],[77.4682,13.1717],[77.4769,13.195],[77.4736,13.2062],[77.4749,13.2141],[77.4798,13.221],[77.5125,13.224],[77.5218,13.2092],[77.5284,13.2182],[77.5367,13.2187],[77.5476,13.2314],[77.5594,13.2315],[77.5574,13.2142],[77.5701,13.2129],[77.5705,13.2009],[77.5989,13.1889],[77.6025,13.1894],[77.6073,13.2011],[77.6204,13.2048],[77.6538,13.2006],[77.655,13.1876],[77.6585,13.1861],[77.6688,13.1848],[77.677,13.1907],[77.6894,13.192],[77.6906,13.1978],[77.6948,13.196],[77.6966,13.1885],[77.7017,13.1867],[77.7152,13.1905],[77.7293,13.1877],[77.7317,13.1826],[77.728,13.1708],[77.7313,13.1662],[77.7293,13.1593],[77.7319,13.1473],[77.7394,13.1394],[77.7374,13.132],[77.7415,13.1218],[77.7346,13.1143],[77.762,13.1122],[77.768,13.0876],[77.7623,13.075],[77.7644,13.0653],[77.7706,13.0501],[77.774,13.0467],[77.7831,13.0458],[77.7849,13.0364],[77.7853,13.0243],[77.7786,13.0134],[77.7801,13.005],[77.7758,12.9766],[77.7806,12.976],[77.7776,12.9719],[77.7834,12.9703],[77.7863,12.9648],[77.7681,12.9599],[77.7744,12.9484],[77.7668,12.9425],[77.7672,12.9377],[77.7796,12.9346],[77.7786,12.9281],[77.7958,12.9235],[77.8014,12.9188],[77.8077,12.9197],[77.8109,12.9288],[77.8157,12.9278],[77.8155,12.9208],[77.8236,12.9069],[77.8355,12.8681]]]}},{"type":"Feature","properties":{"id":"Kolar","name":"Kolar","datameet_name":"Kolar","census_2011_code":581.0},"geometry":{"type":"Polygon","coordinates":[[[77.9257,13.2383],[77.9456,13.2773],[77.9894,13.3074],[78.0136,13.2979],[78.0238,13.2882],[78.0479,13.2885],[78.0698,13.3026],[78.1181,13.2993],[78.1301,13.3014],[78.1219,13.3151],[78.1217,13.3269],[78.1435,13.3527],[78.1473,13.3646],[78.1371,13.3763],[78.1288,13.3998],[78.1846,13.43],[78.2045,13.4519],[78.2081,13.4815],[78.1916,13.5088],[78.1995,13.5227],[78.2013,13.5365],[78.199,13.564],[78.212,13.5771],[78.2181,13.591],[78.2322,13.5862],[78.2373,13.5964],[78.2462,13.5937],[78.2593,13.5835],[78.3223,13.5928],[78.3535,13.5872],[78.3902,13.5908],[78.4007,13.5876],[78.4077,13.5757],[78.396,13.5535],[78.3955,13.5412],[78.3831,13.5218],[78.3842,13.5151],[78.3773,13.5047],[78.3774,13.4764],[78.3727,13.4617],[78.3815,13.4007],[78.3789,13.3895],[78.3654,13.3647],[78.3667,13.3564],[78.3851,13.3561],[78.4077,13.3421],[78.4056,13.3324],[78.4016,13.3335],[78.3988,13.3282],[78.3949,13.3333],[78.3857,13.3362],[78.3879,13.3411],[78.3816,13.3422],[78.3773,13.3298],[78.3895,13.3266],[78.4017,13.3135],[78.4175,13.3199],[78.4257,13.327],[78.4349,13.329],[78.4395,13.327],[78.4408,13.3177],[78.4465,13.3083],[78.4769,13.3201],[78.4823,13.3179],[78.4808,13.3039],[78.4831,13.3011],[78.4941,13.2981],[78.5118,13.2873],[78.5227,13.2701],[78.5315,13.2657],[78.5395,13.286],[78.5579,13.2828],[78.5614,13.2862],[78.5664,13.3096],[78.578,13.282],[78.5869,13.2774],[78.5883,13.2723],[78.583,13.2589],[78.5707,13.2436],[78.5697,13.2374],[78.5681,13.2223],[78.5796,13.2146],[78.571,13.2085],[78.5693,13.2025],[78.5519,13.1975],[78.5534,13.1904],[78.5743,13.1877],[78.5801,13.1668],[78.5722,13.166],[78.569,13.1627],[78.5497,13.1619],[78.5437,13.1524],[78.5477,13.1472],[78.5464,13.1411],[78.5324,13.1393],[78.5197,13.1299],[78.5221,13.1166],[78.5272,13.1111],[78.539,13.1077],[78.5258,13.1014],[78.5248,13.095],[78.5129,13.092],[78.5096,13.0801],[78.5158,13.0697],[78.5156,13.0631],[78.4989,13.06],[78.4884,13.0535],[78.4821,13.0541],[78.4721,13.0423],[78.4626,13.0418],[78.4633,13.014],[78.4725,12.9894],[78.469,12.9736],[78.4337,12.9789],[78.4339,12.968],[78.4384,12.9608],[78.4275,12.9546],[78.4202,12.9571],[78.4217,12.948],[78.4121,12.943],[78.4187,12.9184],[78.4212,12.9168],[78.4281,12.9305],[78.4371,12.9275],[78.4674,12.9032],[78.4696,12.8901],[78.4655,12.8636],[78.4639,12.8759],[78.4577,12.8851],[78.4497,12.8901],[78.447,12.911],[78.4376,12.9124],[78.4358,12.9037],[78.4285,12.8994],[78.4141,12.9016],[78.3995,12.9158],[78.3962,12.9065],[78.3894,12.9054],[78.3797,12.912],[78.3564,12.9382],[78.3517,12.935],[78.355,12.9282],[78.3492,12.9259],[78.3493,12.9166],[78.3382,12.8994],[78.3274,12.9027],[78.3244,12.8987],[78.3219,12.8839],[78.3324,12.8818],[78.3337,12.8863],[78.3385,12.8842],[78.3326,12.873],[78.3151,12.8759],[78.3172,12.8666],[78.3141,12.8573],[78.2866,12.8592],[78.2735,12.8666],[78.269,12.8657],[78.2647,12.8596],[78.2555,12.8611],[78.252,12.8574],[78.2512,12.8132],[78.2405,12.7721],[78.2316,12.7626],[78.2099,12.7651],[78.1948,12.7726],[78.1896,12.7699],[78.177,12.7749],[78.169,12.7701],[78.1473,12.779],[78.1314,12.7798],[78.1252,12.7969],[78.0971,12.813],[78.0867,12.8302],[78.0765,12.8286],[78.0751,12.8398],[78.0619,12.8419],[78.0572,12.852],[78.0524,12.8517],[78.0504,12.8478],[78.0326,12.8508],[78.03,12.8557],[78.0253,12.8554],[78.0272,12.8431],[78.0194,12.8432],[78.0175,12.8296],[78.0102,12.8286],[78.0037,12.8232],[78.016,12.8128],[78.0119,12.805],[77.9918,12.8051],[77.9917,12.8199],[77.9849,12.8239],[77.9816,12.8321],[77.9677,12.8309],[77.9653,12.8346],[77.9682,12.8457],[77.9571,12.8475],[77.9588,12.8575],[77.9557,12.8587],[77.9488,12.859],[77.9436,12.8541],[77.9427,12.849],[77.9501,12.8387],[77.9432,12.8223],[77.9206,12.829],[77.9255,12.8536],[77.9446,12.8654],[77.9437,12.871],[77.9298,12.8728],[77.9285,12.8782],[77.9388,12.8807],[77.9391,12.8841],[77.9344,12.8871],[77.9278,12.8877],[77.9244,12.8828],[77.9123,12.8826],[77.9106,12.8771],[77.8975,12.8761],[77.8923,12.8676],[77.8688,12.8668],[77.8681,12.8758],[77.8571,12.8766],[77.8548,12.8923],[77.8642,12.9127],[77.8435,12.9134],[77.8415,12.9193],[77.8426,12.9233],[77.8551,12.9309],[77.8696,12.9322],[77.8756,12.9426],[77.8679,12.9503],[77.8723,12.9591],[77.8662,12.9642],[77.865,12.9718],[77.8733,12.9733],[77.8731,12.9855],[77.8775,13.0002],[77.8883,13.0097],[77.895,13.0334],[77.8901,13.0348],[77.8929,13.0445],[77.8966,13.0462],[77.8937,13.0481],[77.8973,13.0523],[77.9164,13.0482],[77.9288,13.0674],[77.9409,13.0684],[77.9418,13.0827],[77.9365,13.0756],[77.9274,13.075],[77.9255,13.0798],[77.9143,13.0805],[77.9164,13.0842],[77.9124,13.0937],[77.9027,13.099],[77.9148,13.1091],[77.9159,13.1164],[77.9239,13.1152],[77.929,13.1084],[77.9382,13.1067],[77.94,13.1224],[77.9576,13.1245],[77.9588,13.1572],[77.9548,13.1598],[77.9631,13.1859],[77.9568,13.2011],[77.9582,13.2174],[77.9492,13.2124],[77.9464,13.2145],[77.9647,13.2302],[77.9665,13.2434],[77.9504,13.247],[77.9464,13.2408],[77.9346,13.2418],[77.9302,13.2367],[77.9257,13.2383]]]}},{"type":"Feature","properties":{"id":"Mandya","name":"Mandya","datameet_name":"Mandya","census_2011_code":573.0},"geometry":{"type":"MultiPolygon","coordinates":[[[[76.674,13.0539],[76.6945,13.0352],[76.7026,13.0392],[76.7624,13.0347],[76.7833,13.027],[76.7875,13.0117],[76.7945,13.0133],[76.8063,13.0097],[76.8102,13.0121],[76.8152,13.0025],[76.8275,13.0003],[76.8349,12.9901],[76.8521,12.9773],[76.8516,12.9736],[76.8396,12.9715],[76.8392,12.9443],[76.8479,12.9434],[76.8642,12.9278],[76.8822,12.9334],[76.8901,12.9313],[76.8934,12.9175],[76.8753,12.9197],[76.8652,12.914],[76.8645,12.9067],[76.8719,12.897],[76.8879,12.8979],[76.8928,12.8821],[76.8917,12.8533],[76.8966,12.8497],[76.9066,12.8259],[76.9173,12.8182],[76.9252,12.8044],[76.9325,12.7997],[76.9417,12.8041],[76.9515,12.8007],[76.9711,12.8025],[76.9742,12.7925],[76.9802,12.7929],[76.9881,12.7874],[76.9971,12.7758],[77.0001,12.7748],[77.011,12.7809],[77.0086,12.7687],[77.0106,12.764],[77.0181,12.7619],[77.0259,12.7614],[77.0268,12.7652],[77.0454,12.7762],[77.0518,12.7475],[77.0693,12.7549],[77.0774,12.7457],[77.0813,12.7461],[77.0856,12.7401],[77.074,12.7012],[77.0747,12.6824],[77.0767,12.6783],[77.0838,12.676],[77.0985,12.6749],[77.102,12.6287],[77.1055,12.6248],[77.1166,12.6279],[77.1242,12.6227],[77.1242,12.6196],[77.1119,12.6152],[77.1086,12.6012],[77.1142,12.5951],[77.119,12.5795],[77.1304,12.5677],[77.1291,12.5516],[77.115,12.553],[77.1149,12.5425],[77.1206,12.539],[77.1266,12.52],[77.1305,12.5178],[77.1332,12.5009],[77.1243,12.4849],[77.1264,12.4804],[77.1334,12.4765],[77.1411,12.4622],[77.1477,12.4616],[77.1584,12.4746],[77.1666,12.4751],[77.1667,12.4822],[77.1692,12.4835],[77.1784,12.4784],[77.1992,12.483],[77.2007,12.488],[77.2103,12.4847],[77.2174,12.4905],[77.2228,12.4908],[77.225,12.4997],[77.2396,12.4991],[77.2393,12.4873],[77.2274,12.4879],[77.2265,12.4751],[77.2314,12.4819],[77.2349,12.4817],[77.2345,12.4719],[77.2382,12.4692],[77.245,12.4665],[77.2559,12.4692],[77.2593,12.462],[77.2695,12.4649],[77.2753,12.4392],[77.2711,12.4346],[77.2847,12.4279],[77.282,12.4043],[77.2846,12.4038],[77.2873,12.3919],[77.3145,12.3899],[77.3287,12.3656],[77.3337,12.3531],[77.3228,12.3071],[77.3031,12.2981],[77.2721,12.3126],[77.2498,12.307],[77.2344,12.3092],[77.2257,12.3045],[77.2185,12.3045],[77.215,12.3079],[77.1661,12.3091],[77.1686,12.293],[77.1658,12.2743],[77.17,12.2595],[77.165,12.2563],[77.1522,12.2561],[77.1446,12.249],[77.1339,12.249],[77.1113,12.2415],[77.1071,12.2203],[77.0885,12.2187],[77.0839,12.2254],[77.0811,12.2236],[77.0807,12.235],[77.0752,12.2369],[77.065,12.2338],[77.0584,12.238],[77.0504,12.2377],[77.048,12.2335],[77.0353,12.2334],[77.0249,12.2424],[76.9998,12.2437],[76.9904,12.2569],[76.9918,12.2867],[76.9731,12.2896],[76.9765,12.306],[76.9897,12.3006],[76.9933,12.3012],[76.9981,12.3088],[76.9859,12.319],[76.9854,12.3286],[76.9785,12.3265],[76.9774,12.3524],[76.9553,12.3551],[76.9559,12.328],[76.9484,12.3306],[76.925,12.3223],[76.924,12.3245],[76.928,12.3382],[76.9239,12.3504],[76.9394,12.354],[76.9403,12.3758],[76.9363,12.3881],[76.9368,12.4015],[76.9273,12.413],[76.927,12.4293],[76.92,12.4415],[76.9049,12.4351],[76.9063,12.4222],[76.9021,12.4206],[76.8969,12.4084],[76.8814,12.4007],[76.865,12.3975],[76.8609,12.406],[76.8558,12.4076],[76.8467,12.4015],[76.8359,12.4023],[76.8338,12.4],[76.8367,12.395],[76.8359,12.3841],[76.8182,12.3861],[76.8118,12.3598],[76.8056,12.3664],[76.8056,12.3548],[76.7987,12.3537],[76.7886,12.3459],[76.782,12.3503],[76.7712,12.3501],[76.7634,12.335],[76.7659,12.3199],[76.7638,12.3079],[76.758,12.3018],[76.7526,12.3019],[76.7489,12.3058],[76.7435,12.3173],[76.733,12.3193],[76.7318,12.3407],[76.7197,12.355],[76.7007,12.3501],[76.6896,12.3636],[76.6814,12.3667],[76.6863,12.3903],[76.6687,12.3894],[76.6653,12.386],[76.651,12.3955],[76.6423,12.3893],[76.6409,12.382],[76.6304,12.3773],[76.6251,12.3676],[76.6,12.365],[76.5806,12.3487],[76.5687,12.349],[76.5651,12.3519],[76.562,12.3623],[76.5659,12.3785],[76.5573,12.391],[76.5588,12.3974],[76.5644,12.3987],[76.5662,12.4035],[76.5682,12.4245],[76.5448,12.4389],[76.5354,12.438],[76.5129,12.4513],[76.5007,12.4512],[76.4985,12.4615],[76.4825,12.4712],[76.4581,12.4785],[76.4512,12.4873],[76.453,12.5077],[76.4451,12.5078],[76.4412,12.5118],[76.434,12.5268],[76.4243,12.5357],[76.4267,12.5441],[76.4188,12.5465],[76.4135,12.5558],[76.392,12.5526],[76.3915,12.5601],[76.3965,12.5717],[76.3811,12.5747],[76.3726,12.6057],[76.3659,12.6101],[76.3664,12.6285],[76.3552,12.6377],[76.3552,12.6508],[76.3451,12.656],[76.3479,12.6653],[76.3555,12.6739],[76.3568,12.6826],[76.3627,12.6893],[76.3654,12.7069],[76.365,12.7102],[76.3482,12.7197],[76.3447,12.7321],[76.3489,12.7386],[76.3474,12.743],[76.357,12.7441],[76.359,12.7485],[76.3578,12.7523],[76.3487,12.7579],[76.3456,12.7656],[76.3526,12.7711],[76.3519,12.7858],[76.3376,12.7879],[76.3316,12.8067],[76.3387,12.8126],[76.3579,12.8088],[76.3733,12.8097],[76.371,12.8263],[76.3865,12.8328],[76.3903,12.8456],[76.3998,12.8477],[76.4117,12.8458],[76.4099,12.8663],[76.4125,12.8661],[76.4295,12.8516],[76.4294,12.8477],[76.4242,12.8446],[76.4279,12.8252],[76.446,12.8224],[76.4527,12.8113],[76.4586,12.8088],[76.4598,12.803],[76.4705,12.8021],[76.4699,12.7949],[76.4576,12.7851],[76.4582,12.7801],[76.4779,12.7722],[76.4821,12.7812],[76.4912,12.7851],[76.4991,12.7691],[76.501,12.777],[76.4943,12.7873],[76.4993,12.8047],[76.493,12.8079],[76.5024,12.8212],[76.5167,12.8247],[76.5226,12.8412],[76.5769,12.8479],[76.5796,12.8692],[76.5965,12.8802],[76.5919,12.8907],[76.6014,12.9023],[76.5967,12.9202],[76.603,12.9241],[76.6054,12.9369],[76.6159,12.938],[76.6186,12.9431],[76.6197,12.9511],[76.6128,12.9601],[76.613,12.9655],[76.6323,12.9719],[76.6351,12.9846],[76.6319,13.0056],[76.6529,13.0065],[76.674,13.0539]],[[77.2923,12.351],[77.2917,12.3617],[77.2886,12.361],[77.2868,12.3538],[77.2923,12.351]],[[77.3099,12.3623],[77.3059,12.3615],[77.3022,12.3535],[77.3102,12.3585],[77.3099,12.3623]]],[[[76.9185,12.3585],[76.9113,12.3542],[76.8974,12.3557],[76.8956,12.3586],[76.8978,12.3715],[76.9096,12.3767],[76.9116,12.3822],[76.9235,12.379],[76.9185,12.3585]]],[[[76.9861,12.2589],[76.9782,12.2537],[76.9708,12.2575],[76.968,12.2665],[76.9715,12.2744],[76.9814,12.2719],[76.9861,12.2589]]]]}}]}